NORAD_CAT_ID,OBJECT_NAME,OBJECT_TYPE,EPOCH,MEAN_MOTION,ECCENTRICITY,INCLINATION,RA_OF_ASC_NODE,ARG_OF_PERICENTER,MEAN_ANOMALY,BSTAR,MEAN_MOTION_DOT,MEAN_MOTION_DDOT,TLE_LINE0,TLE_LINE1,TLE_LINE2,SEMIMAJOR_AXIS,PERIOD,APOGEE,PERIGEE,DECAYED
52578.0,STARLINK-3833,PAYLOAD,2023-06-13 09:01:25,15.08837451,0.0001116,53.2174,304.7034,89.0551,271.0569,7.0231e-05,8.3e-06,0.0,0 STARLINK-3833,1 52578U 22051AU  23164.37598611  .00000830  00000-0  70231-4 0  9991,2 52578  53.2174 304.7034 0001116  89.0551 271.0569 15.08837451 60434,6917.888,95.438,540.525,538.981,0.0
52578.0,STARLINK-3833,PAYLOAD,2023-06-13 12:12:11,15.0883575,0.0001033,53.2166,304.109,92.3939,267.7171,2.4685e-05,1.05e-06,0.0,0 STARLINK-3833,1 52578U 22051AU  23164.50846699  .00000105  00000-0  24685-4 0  9995,2 52578  53.2166 304.1090 0001033  92.3939 267.7171 15.08835750 60381,6917.893,95.438,540.473,539.044,0.0
52578.0,STARLINK-3833,PAYLOAD,2023-06-14 12:02:58,15.0883822,0.0001094,53.217,299.6475,82.3681,277.7435,8.5486e-05,1.073e-05,0.0,0 STARLINK-3833,1 52578U 22051AU  23165.50206791  .00001073  00000-0  85486-4 0  9990,2 52578  53.2170 299.6475 0001094  82.3681 277.7435 15.08838220 60605,6917.886,95.438,540.508,538.994,0.0
52578.0,STARLINK-3833,PAYLOAD,2023-06-14 18:24:30,15.08845764,0.0001078,53.2168,298.4575,82.1914,277.92,0.00015002,2.101e-05,0.0,0 STARLINK-3833,1 52578U 22051AU  23165.76702398  .00002101  00000-0  15002-3 0  9991,2 52578  53.2168 298.4575 0001078  82.1914 277.9200 15.08845764 60578,6917.863,95.437,540.474,538.982,0.0
52578.0,STARLINK-3833,PAYLOAD,2023-06-15 13:29:09,15.08833917,8.41e-05,53.2179,294.8873,109.2341,250.8743,0.00016338,2.313e-05,0.0,0 STARLINK-3833,1 52578U 22051AU  23166.56190995  .00002313  00000-0  16338-3 0  9992,2 52578  53.2179 294.8873 0000841 109.2341 250.8743 15.08833917 60695,6917.899,95.438,540.346,539.182,0.0
52578.0,STARLINK-3833,PAYLOAD,2023-06-15 18:15:18,15.08842821,0.0001025,53.2178,293.996,102.7562,257.3545,6.1871e-05,6.97e-06,0.0,0 STARLINK-3833,1 52578U 22051AU  23166.76062618  .00000697  00000-0  61871-4 0  9990,2 52578  53.2178 293.9960 0001025 102.7562 257.3545 15.08842821 60796,6917.872,95.437,540.446,539.028,0.0
52578.0,STARLINK-3833,PAYLOAD,2023-06-16 11:44:30,15.08881058,0.0001162,53.2176,290.7242,91.5665,268.546,-0.00029759,-5.026e-05,0.0,0 STARLINK-3833,1 52578U 22051AU  23167.48924612 -.00005026  00000-0 -29759-3 0  9992,2 52578  53.2176 290.7242 0001162  91.5665 268.5460 15.08881058 60833,6917.755,95.435,540.424,538.816,0.0
52578.0,STARLINK-3833,PAYLOAD,2023-06-16 14:55:17,15.08855165,9.96e-05,53.2176,290.1309,93.127,266.9836,0.00023193,3.407e-05,0.0,0 STARLINK-3833,1 52578U 22051AU  23167.62173340  .00003407  00000-0  23193-3 0  9997,2 52578  53.2176 290.1309 0000996  93.1270 266.9836 15.08855165 60924,6917.834,95.437,540.388,539.01,0.0
52578.0,STARLINK-3833,PAYLOAD,2023-06-16 18:06:04,15.08862304,0.0001082,53.2167,289.5359,90.4424,269.6692,0.00033506,5.052e-05,0.0,0 STARLINK-3833,1 52578U 22051AU  23167.75421426  .00005052  00000-0  33506-3 0  9999,2 52578  53.2167 289.5359 0001082  90.4424 269.6692 15.08862304 60876,6917.812,95.436,540.426,538.929,0.0
52578.0,STARLINK-3833,PAYLOAD,2023-06-17 08:24:34,15.08827125,0.0001021,53.2172,286.8593,101.9395,258.1711,-7.9334e-05,-1.55e-05,0.0,0 STARLINK-3833,1 52578U 22051AU  23168.35039369 -.00001550  00000-0 -79334-4 0  9998,2 52578  53.2172 286.8593 0001021 101.9395 258.1711 15.08827125 61036,6917.92,95.438,540.491,539.078,0.0
52578.0,STARLINK-3833,PAYLOAD,2023-06-17 11:35:20,15.08827846,0.0001101,53.2171,286.2657,79.9084,280.2032,-4.3907e-05,-9.86e-06,0.0,0 STARLINK-3833,1 52578U 22051AU  23168.48287569 -.00000986  00000-0 -43907-4 0  9998,2 52578  53.2171 286.2657 0001101  79.9084 280.2032 15.08827846 60983,6917.918,95.438,540.544,539.021,0.0
52578.0,STARLINK-3833,PAYLOAD,2023-06-17 14:46:06,15.08833649,0.0001012,53.2172,285.6704,101.9989,258.1117,-7.1351e-05,-1.423e-05,0.0,0 STARLINK-3833,1 52578U 22051AU  23168.61535045 -.00001423  00000-0 -71351-4 0  9999,2 52578  53.2172 285.6704 0001012 101.9989 258.1117 15.08833649 61001,6917.9,95.438,540.465,539.065,0.0
52578.0,STARLINK-3833,PAYLOAD,2023-06-18 00:18:25,15.08837462,9.45e-05,53.2173,283.8865,102.0092,258.1006,0.00025837,3.826e-05,0.0,0 STARLINK-3833,1 52578U 22051AU  23169.01279155  .00003826  00000-0  25837-3 0  9995,2 52578  53.2173 283.8865 0000945 102.0092 258.1006 15.08837462 61139,6917.888,95.438,540.407,539.099,0.0
52578.0,STARLINK-3833,PAYLOAD,2023-06-18 14:36:53,15.08847824,9.06e-05,53.2176,281.2107,95.8875,264.222,0.000716,0.00011128,0.0,0 STARLINK-3833,1 52578U 22051AU  23169.60895271  .00011128  00000-0  71600-3 0  9996,2 52578  53.2176 281.2107 0000906  95.8875 264.2220 15.08847824 61159,6917.856,95.437,540.348,539.095,0.0
52578.0,STARLINK-3833,PAYLOAD,2023-06-19 08:06:07,15.0884121,0.0001211,53.2167,277.9434,117.3919,242.7196,0.00012001,1.623e-05,0.0,0 STARLINK-3833,1 52578U 22051AU  23170.33759173  .00001623  00000-0  12001-3 0  9997,2 52578  53.2167 277.9434 0001211 117.3919 242.7196 15.08841210 61339,6917.877,95.437,540.579,538.904,0.0
52578.0,STARLINK-3833,PAYLOAD,2023-06-19 23:59:59,15.0884893,9.57e-05,53.2169,274.9647,82.6256,277.4845,0.00025996,3.853e-05,0.0,0 STARLINK-3833,1 52578U 22051AU  23170.99998991  .00003853  00000-0  25996-3 0  9996,2 52578  53.2169 274.9647 0000957  82.6256 277.4845 15.08848930 61363,6917.853,95.437,540.38,539.056,0.0
52578.0,STARLINK-3833,PAYLOAD,2023-06-20 15:53:50,15.08837263,8.84e-05,53.2168,271.9941,91.4224,268.687,-2.279e-05,-6.5e-06,0.0,0 STARLINK-3833,1 52578U 22051AU  23171.66239327 -.00000650  00000-0 -22790-4 0  9996,2 52578  53.2168 271.9941 0000884  91.4224 268.6870 15.08837263 61534,6917.889,95.438,540.365,539.142,0.0
52578.0,STARLINK-3833,PAYLOAD,2023-06-21 14:09:14,15.08846417,9.43e-05,53.2168,267.8316,84.7492,275.3608,0.00010298,1.352e-05,0.0,0 STARLINK-3833,1 52578U 22051AU  23172.58975154  .00001352  00000-0  10298-3 0  9990,2 52578  53.2168 267.8316 0000943  84.7492 275.3608 15.08846417 61605,6917.861,95.437,540.378,539.073,0.0
52578.0,STARLINK-3833,PAYLOAD,2023-06-21 23:41:33,15.08842071,9.56e-05,53.2177,266.0473,85.8159,274.2942,4.282e-05,3.94e-06,0.0,0 STARLINK-3833,1 52578U 22051AU  23172.98719475  .00000394  00000-0  42820-4 0  9998,2 52578  53.2177 266.0473 0000956  85.8159 274.2942 15.08842071 61731,6917.874,95.437,540.4,539.078,0.0
52578.0,STARLINK-3833,PAYLOAD,2023-06-23 12:15:25,15.08845526,7.31e-05,53.2166,259.2068,88.3402,271.7674,0.00015128,2.121e-05,0.0,0 STARLINK-3833,1 52578U 22051AU  23174.51071112  .00002121  00000-0  15128-3 0  9998,2 52578  53.2166 259.2068 0000731  88.3402 271.7674 15.08845526 61960,6917.863,95.437,540.234,539.223,0.0
52578.0,STARLINK-3833,PAYLOAD,2023-06-23 13:50:48,15.08853101,8.75e-05,53.2177,258.9097,86.9328,273.1764,0.00011758,1.585e-05,0.0,0 STARLINK-3833,1 52578U 22051AU  23174.57694694  .00001585  00000-0  11758-3 0  9998,2 52578  53.2177 258.9097 0000875  86.9328 273.1764 15.08853101 61975,6917.84,95.437,540.311,539.1,0.0
52578.0,STARLINK-3833,PAYLOAD,2023-06-24 08:55:26,15.08837587,9.04e-05,53.2161,255.3393,98.3787,261.7307,0.00010415,1.37e-05,0.0,0 STARLINK-3833,1 52578U 22051AU  23175.37183768  .00001370  00000-0  10415-3 0  9993,2 52578  53.2161 255.3393 0000904  98.3787 261.7307 15.08837587 62097,6917.888,95.438,540.378,539.127,0.0
52578.0,STARLINK-3833,PAYLOAD,2023-06-25 11:56:59,15.08844648,0.000107,53.2166,250.2867,78.6427,281.4685,7.6502e-05,9.3e-06,0.0,0 STARLINK-3833,1 52578U 22051AU  23176.49791345  .00000930  00000-0  76502-4 0  9994,2 52578  53.2166 250.2867 0001070  78.6427 281.4685 15.08844648 62262,6917.866,95.437,540.471,538.991,0.0
52578.0,STARLINK-3833,PAYLOAD,2023-06-25 21:29:19,15.0882822,0.0001199,53.2166,248.5008,86.6277,273.4852,-0.00012227,-2.233e-05,0.0,0 STARLINK-3833,1 52578U 22051AU  23176.89536125 -.00002233  00000-0 -12227-3 0  9994,2 52578  53.2166 248.5008 0001199  86.6277 273.4852 15.08828220 62325,6917.916,95.438,540.611,538.952,0.0
52578.0,STARLINK-3833,PAYLOAD,2023-06-26 10:12:24,15.08836185,0.0001065,53.2165,246.1218,92.7427,267.3687,2.3937e-05,9.3e-07,0.0,0 STARLINK-3833,1 52578U 22051AU  23177.42527906  .00000093  00000-0  23937-4 0  9992,2 52578  53.2165 246.1218 0001065  92.7427 267.3687 15.08836185 62404,6917.892,95.438,540.494,539.02,0.0
52578.0,STARLINK-3833,PAYLOAD,2023-06-27 14:49:20,15.08839716,9.62e-05,53.2158,240.7709,94.4032,265.707,0.00014287,1.987e-05,0.0,0 STARLINK-3833,1 52578U 22051AU  23178.61760199  .00001987  00000-0  14287-3 0  9997,2 52578  53.2158 240.7709 0000962  94.4032 265.7070 15.08839716 62587,6917.881,95.438,540.412,539.081,0.0
52578.0,STARLINK-3833,PAYLOAD,2023-06-28 16:15:31,15.08844579,9.84e-05,53.2156,236.0133,94.1957,265.9147,0.00023687,3.484e-05,0.0,0 STARLINK-3833,1 52578U 22051AU  23179.67744229  .00003484  00000-0  23687-3 0  9998,2 52578  53.2156 236.0133 0000984  94.1957 265.9147 15.08844579 62749,6917.866,95.437,540.412,539.051,0.0
52578.0,STARLINK-3833,PAYLOAD,2023-06-29 12:55:31,15.08845933,9.97e-05,53.2154,232.1472,89.1452,270.9654,0.00018172,2.606e-05,0.0,0 STARLINK-3833,1 52578U 22051AU  23180.53856167  .00002606  00000-0  18172-3 0  9998,2 52578  53.2154 232.1472 0000997  89.1452 270.9654 15.08845933 62876,6917.862,95.437,540.417,539.038,0.0
52578.0,STARLINK-3833,PAYLOAD,2023-06-30 20:43:14,15.08847871,0.0001002,53.2154,226.1998,86.9699,273.1408,0.0001318,1.811e-05,0.0,0 STARLINK-3833,1 52578U 22051AU  23181.86335753  .00001811  00000-0  13180-3 0  9999,2 52578  53.2154 226.1998 0001002  86.9699 273.1408 15.08847871 63076,6917.856,95.437,540.414,539.028,0.0
52578.0,STARLINK-3833,PAYLOAD,2023-07-01 09:26:19,15.08837152,9.68e-05,53.2158,223.8199,91.9108,268.1994,5.3812e-07,-2.79e-06,0.0,0 STARLINK-3833,1 52578U 22051AU  23182.39328591 -.00000279  00000-0  53812-6 0  9997,2 52578  53.2158 223.8199 0000968  91.9108 268.1994 15.08837152 63152,6917.889,95.438,540.424,539.084,0.0
